[{"OBJECT_NAME":"SCS-01 J","OBJECT_ID":"2025-100J","EPOCH":"2026-03-09T22:31:25.904064","MEAN_MOTION":15.31338011,"ECCENTRICITY":0.00063909,"INCLINATION":97.3693,"RA_OF_ASC_NODE":145.4824,"ARG_OF_PERICENTER":272.025,"MEAN_ANOMALY":88.026,"EPHEMERIS_TYPE":0,"CLASSIFICATION_TYPE":"U","NORAD_CAT_ID":63990,"ELEMENT_SET_NO":999,"REV_AT_EPOCH":4563,"BSTAR":0.0011832888,"MEAN_MOTION_DOT":0.00035886,"MEAN_MOTION_DDOT":0},{"OBJECT_NAME":"STARLINK-34500","OBJECT_ID":"2025-137V","EPOCH":"2026-03-09T21:24:49.086720","MEAN_MOTION":15.30223305,"ECCENTRICITY":0.00013047,"INCLINATION":53.1573,"RA_OF_ASC_NODE":334.4557,"ARG_OF_PERICENTER":126.8971,"MEAN_ANOMALY":233.215,"EPHEMERIS_TYPE":0,"CLASSIFICATION_TYPE":"U","NORAD_CAT_ID":64613,"ELEMENT_SET_NO":999,"REV_AT_EPOCH":4086,"BSTAR":0.00092339018,"MEAN_MOTION_DOT":0.00027109,"MEAN_MOTION_DDOT":0}]
